{"type":"FeatureCollection","features":[{"type":"Feature","properties":{"name":"Taiwan","source":"GSHHS intermediate-resolution coastline via Basemap"},"geometry":{"type":"Polygon","coordinates":[[[120.8641357421875,21.99958038330078],[120.86333465576172,21.99958038330078],[120.84122467041016,21.98999786376953],[120.83621978759766,21.965805053710938],[120.8558349609375,21.900390625],[120.81583404541016,21.937889099121094],[120.76080322265625,21.962081909179688],[120.73413848876953,21.922889709472656],[120.70539093017578,21.937469482421875],[120.71041870117188,21.97997283935547],[120.67710876464844,22.02996826171875],[120.70708465576172,22.104141235351562],[120.67455291748047,22.211639404296875],[120.63957977294922,22.25580596923828],[120.63119506835938,22.306640625],[120.57669067382812,22.370391845703125],[120.50749969482422,22.410385131835938],[120.51249694824219,22.426223754882812],[120.50333404541016,22.412025451660156],[120.44583129882812,22.444549560546875],[120.43538665771484,22.47247314453125],[120.41622161865234,22.477500915527344],[120.4124755859375,22.503753662109375],[120.4041976928711,22.475418090820312],[120.3492202758789,22.5062255859375],[120.2520523071289,22.610000610351562],[120.26249694824219,22.613754272460938],[120.32583618164062,22.53955078125],[120.3245849609375,22.557472229003906],[120.27291870117188,22.607444763183594],[120.29003143310547,22.592086791992188],[120.28125,22.61750030517578],[120.25497436523438,22.616249084472656],[120.24038696289062,22.645004272460938],[120.2636947631836,22.695831298828125],[120.24874877929688,22.69330596923828],[120.19036102294922,22.838302612304688],[120.19499969482422,22.852890014648438],[120.21377563476562,22.845779418945312],[120.20874786376953,22.857498168945312],[120.19080352783203,22.87957763671875],[120.18621826171875,22.850799560546875],[120.16039276123047,22.9566650390625],[120.1312255859375,22.994972229003906],[120.14749908447266,23.009552001953125],[120.18583679199219,23.004554748535156],[120.1812515258789,23.040023803710938],[120.16077423095703,23.040390014648438],[120.1441650390625,23.018722534179688],[120.1125259399414,23.039581298828125],[120.09664154052734,23.032058715820312],[120.11499786376953,23.011192321777344],[120.05294036865234,23.044944763183594],[120.08747100830078,23.0804443359375],[120.0508041381836,23.060386657714844],[120.04330444335938,23.081222534179688],[120.02960968017578,23.0758056640625],[120.02788543701172,23.11077880859375],[120.04666900634766,23.122886657714844],[120.0374755859375,23.084556579589844],[120.12208557128906,23.1141357421875],[120.10208129882812,23.127471923828125],[120.0999984741211,23.149551391601562],[120.06786346435547,23.147476196289062],[120.06794738769531,23.174163818359375],[120.08625030517578,23.17749786376953],[120.07291412353516,23.19330596923828],[120.08875274658203,23.205001831054688],[120.087890625,23.228302001953125],[120.11538696289062,23.229171752929688],[120.08544158935547,23.237472534179688],[120.1120834350586,23.252471923828125],[120.09708404541016,23.269973754882812],[120.13622283935547,23.304168701171875],[120.126220703125,23.322471618652344],[120.15499877929688,23.317916870117188],[120.16122436523438,23.3316650390625],[120.14122009277344,23.344139099121094],[120.15875244140625,23.399993896484375],[120.14205932617188,23.425804138183594],[120.15625,23.429969787597656],[120.1370849609375,23.438331604003906],[120.149169921875,23.450416564941406],[120.15914154052734,23.434555053710938],[120.1762466430664,23.45166778564453],[120.1541976928711,23.465415954589844],[120.13955688476562,23.458328247070312],[120.15205383300781,23.489944458007812],[120.14250183105469,23.4820556640625],[120.14746856689453,23.495391845703125],[120.126220703125,23.494972229003906],[120.12708282470703,23.520782470703125],[120.15372467041016,23.524948120117188],[120.15374755859375,23.550003051757812],[120.1370849609375,23.555801391601562],[120.14785766601562,23.6058349609375],[120.13249969482422,23.615386962890625],[120.126220703125,23.594192504882812],[120.12875366210938,23.632469177246094],[120.15377807617188,23.686660766601562],[120.19125366210938,23.721633911132812],[120.2011947631836,23.764968872070312],[120.19122314453125,23.759971618652344],[120.19122314453125,23.774192810058594],[120.23336029052734,23.822921752929688],[120.30496978759766,23.81121826171875],[120.36541748046875,23.829193115234375],[120.26457977294922,23.84583282470703],[120.26294708251953,23.86499786376953],[120.3320541381836,23.96746826171875],[120.31625366210938,23.969161987304688],[120.32211303710938,23.987472534179688],[120.34416961669922,23.991249084472656],[120.36708068847656,24.041671752929688],[120.3949966430664,24.04791259765625],[120.4004135131836,24.071693420410156],[120.42791748046875,24.092498779296875],[120.43289184570312,24.13666534423828],[120.4753646850586,24.196640014648438],[120.50872039794922,24.181640625],[120.48041534423828,24.209136962890625],[120.525390625,24.29247283935547],[120.54035949707031,24.296661376953125],[120.55371856689453,24.3499755859375],[120.57705688476562,24.37413787841797],[120.56539154052734,24.379165649414062],[120.587890625,24.384170532226562],[120.5812759399414,24.3966064453125],[120.6004409790039,24.4024658203125],[120.59122467041016,24.415000915527344],[120.66791534423828,24.489105224609375],[120.71294403076172,24.607467651367188],[120.7750015258789,24.611221313476562],[120.74958038330078,24.628326416015625],[120.77586364746094,24.664527893066406],[120.85205841064453,24.667495727539062],[120.82455444335938,24.67919158935547],[120.85541534423828,24.704971313476562],[120.85871887207031,24.72833251953125],[120.8937759399414,24.747467041015625],[120.91958618164062,24.804969787597656],[120.900390625,24.811660766601562],[120.90205383300781,24.82830810546875],[120.92166900634766,24.852890014648438],[120.95291900634766,24.85497283935547],[120.93791961669922,24.86163330078125],[120.94622039794922,24.891639709472656],[120.97286224365234,24.910858154296875],[120.96121978759766,24.919166564941406],[121.02960968017578,25.026641845703125],[121.09083557128906,25.067054748535156],[121.16999816894531,25.087081909179688],[121.24160766601562,25.12458038330078],[121.33086395263672,25.12872314453125],[121.41080474853516,25.174606323242188],[121.44108581542969,25.158584594726562],[121.400390625,25.189971923828125],[121.44452667236328,25.251663208007812],[121.50497436523438,25.293746948242188],[121.57250213623047,25.300445556640625],[121.6199722290039,25.274581909179688],[121.66080474853516,25.207916259765625],[121.69586181640625,25.219581604003906],[121.6812744140625,25.19244384765625],[121.70417022705078,25.167892456054688],[121.7437515258789,25.158309936523438],[121.73580932617188,25.134552001953125],[121.76660919189453,25.157913208007812],[121.80000305175781,25.149551391601562],[121.81664276123047,25.125411987304688],[121.91830444335938,25.132919311523438],[121.90955352783203,25.087493896484375],[121.9312515258789,25.025833129882812],[121.97750091552734,25.02789306640625],[121.99958038330078,25.0074462890625],[121.88580322265625,24.940383911132812],[121.82453155517578,24.854995727539062],[121.81208038330078,24.764968872070312],[121.82538604736328,24.718307495117188],[121.8062515258789,24.71746826171875],[121.82955932617188,24.70330810546875],[121.84625244140625,24.627471923828125],[121.87786102294922,24.606666564941406],[121.85124969482422,24.602500915527344],[121.87208557128906,24.582473754882812],[121.86621856689453,24.535003662109375],[121.83119201660156,24.518280029296875],[121.85541534423828,24.481643676757812],[121.81664276123047,24.465415954589844],[121.79458618164062,24.435806274414062],[121.76702880859375,24.310806274414062],[121.73455810546875,24.259109497070312],[121.6570816040039,24.195831298828125],[121.65791320800781,24.13666534423828],[121.61119079589844,24.087493896484375],[121.6128921508789,24.052474975585938],[121.64038848876953,24.009994506835938],[121.59955596923828,23.959999084472656],[121.59539031982422,23.87750244140625],[121.54289245605469,23.721664428710938],[121.5195541381836,23.579193115234375],[121.49539184570312,23.522476196289062],[121.5062484741211,23.485000610351562],[121.4820556640625,23.469970703125],[121.49622344970703,23.46416473388672],[121.45957946777344,23.32330322265625],[121.43205261230469,23.30249786376953],[121.4129409790039,23.226669311523438],[121.38874816894531,23.206634521484375],[121.39205932617188,23.139114379882812],[121.40621948242188,23.124969482421875],[121.35624694824219,23.095001220703125],[121.32872009277344,23.019973754882812],[121.24144744873047,22.88494873046875],[121.18228149414062,22.848251342773438],[121.19222259521484,22.797439575195312],[121.16969299316406,22.759918212890625],[121.02850341796875,22.668670654296875],[121.00141906738281,22.590744018554688],[120.97205352783203,22.563331604003906],[120.88455963134766,22.328330993652344],[120.8886947631836,22.142471313476562],[120.87711334228516,22.128326416015625],[120.89130401611328,22.105804443359375],[120.8812484741211,22.084197998046875],[120.8903579711914,22.03411102294922],[120.8641357421875,21.99958038330078]]]}}]}